{
    "01100": [
        {
            "id": 1,
            "url": "https://mapharma.net/01100-1",
            "zip": "01100",
            "name": "La Pharmacie Du Geant",
            "address": "Centre Cial G\u00e9ant 795, avenue du 19 mars 1962 01100 ARBENT",
            "reasons": []
        },
        {
            "id": 2,
            "url": "https://mapharma.net/01100-2",
            "zip": "01100",
            "name": "Pharmacie De Bellignat",
            "address": "3 Place des Arcades 01100 BELLIGNAT",
            "reasons": []
        }
    ],
    "02200": [
        {
            "id": 0,
            "url": "https://mapharma.net/02200",
            "zip": "02200",
            "name": "Pharmacie Daoudi",
            "address": "Avenue Robert Schuman 02200 SOISSONS",
            "reasons": []
        }
    ],
    "02100": [
        {
            "id": 1,
            "url": "https://mapharma.net/02100-1",
            "zip": "02100",
            "name": "Pharmacie Du Contoy",
            "address": "Rue du Mill\u00e9naire 02100 HARLY",
            "reasons": []
        },
        {
            "id": 2,
            "url": "https://mapharma.net/02100-2",
            "zip": "02100",
            "name": "Pharmacie De Saint Quentin",
            "address": "4 rue de la Chauss\u00e9e Romaine 02100 SAINT QUENTIN",
            "reasons": []
        }
    ],
    "03250": [
        {
            "id": 0,
            "url": "https://mapharma.net/03250",
            "zip": "03250",
            "name": "Pharmacie Meynial",
            "address": "50 rue Francisque Drifford 03250 LE MAYET DE MONTAGNE",
            "reasons": []
        }
    ],
    "03000": [
        {
            "id": 0,
            "url": "https://mapharma.net/03000",
            "zip": "03000",
            "name": "Pharmacie De La Madeleine",
            "address": "20 avenue de la Lib\u00e9ration 03000 MOULINS",
            "reasons": []
        }
    ],
    "04000": [
        {
            "id": 0,
            "url": "https://mapharma.net/04000",
            "zip": "04000",
            "name": "Pharmacie Des Arches",
            "address": "60 Bd Victor Hugo 04000 DIGNE LES BAINS",
            "reasons": []
        }
    ],
    "06000": [
        {
            "id": 1,
            "url": "https://mapharma.net/06000-1",
            "zip": "06000",
            "name": "Pharmacie Anglo-Americaine",
            "address": "2 rue de France 06000 NICE",
            "reasons": []
        },
        {
            "id": 2,
            "url": "https://mapharma.net/06000-2",
            "zip": "06000",
            "name": "Pharmacie Nice Gare Du Sud",
            "address": "3 all\u00e9e Philippe Seguin 06000 NICE",
            "reasons": []
        }
    ],
    "06220": [
        {
            "id": 0,
            "url": "https://mapharma.net/06220",
            "zip": "06220",
            "name": "Pharmacie Des Floralies",
            "address": "41 Avenue de Cannes 06220 VALLAURIS",
            "reasons": [
                {
                    "campagneId": "113",
                    "optionId": "1",
                    "optionName": "vaccination  covid vendredi (10 min.)"
                },
                {
                    "campagneId": "113",
                    "optionId": "2",
                    "optionName": "vaccination covid samedi (10 min.)"
                }
            ]
        }
    ],
    "08000": [
        {
            "id": 0,
            "url": "https://mapharma.net/08000",
            "zip": "08000",
            "name": "Pharmacie Des 2 Villes",
            "address": "61 Avenue des Arches 08000 CHARLEVILLE MEZIERES",
            "reasons": []
        }
    ],
    "12200": [
        {
            "id": 0,
            "url": "https://mapharma.net/12200",
            "zip": "12200",
            "name": "Pharmacie Carnus",
            "address": "13 Rue Marcellin Fabre 12200 VILLEFRANCHE DE ROUERGUE",
            "reasons": []
        }
    ],
    "13700": [
        {
            "id": 0,
            "url": "https://mapharma.net/13700",
            "zip": "13700",
            "name": "Grande Pharmacie Du Centre",
            "address": "4 avenue Jean Jaur\u00e8s 13700 MARIGNANE",
            "reasons": []
        }
    ],
    "14780": [
        {
            "id": 0,
            "url": "https://mapharma.net/14780",
            "zip": "14780",
            "name": "Pharmacie Bleas German",
            "address": "26 Bld Paul Doumer 14780 LION SUR MER",
            "reasons": []
        }
    ],
    "19100": [
        {
            "id": 0,
            "url": "https://mapharma.net/19100",
            "zip": "19100",
            "name": "Pharmacie Des Lycees",
            "address": "8 bis Avenue Pierre S\u00e9mard 19100 BRIVE LA GAILLARDE",
            "reasons": []
        }
    ],
    "24750": [
        {
            "id": 0,
            "url": "https://mapharma.net/24750",
            "zip": "24750",
            "name": "Pharmacie Arnaud-Rousseau",
            "address": "215 Boulevard du Petit Change 24750 BOULAZAC",
            "reasons": [
                {
                    "campagneId": "47",
                    "optionId": "1",
                    "optionName": "Vaccination covid"
                }
            ]
        }
    ],
    "25000": [
        {
            "id": 1,
            "url": "https://mapharma.net/25000-1",
            "zip": "25000",
            "name": "Pharmacie De Palente",
            "address": "5 rue des Lilas 25000 BESANCON",
            "reasons": []
        },
        {
            "id": 2,
            "url": "https://mapharma.net/25000-2",
            "zip": "25000",
            "name": "Pharmacie Maphiba",
            "address": "Centre Cial Super U17 rue de l'Amiti\u00e9 25000 BESANCON",
            "reasons": []
        },
        {
            "id": 3,
            "url": "https://mapharma.net/25000-3",
            "zip": "25000",
            "name": "Pharmacie Levillain",
            "address": "28 rue de Chalezeule 25000 BESANCON",
            "reasons": []
        }
    ],
    "27120": [
        {
            "id": 0,
            "url": "https://mapharma.net/27120",
            "zip": "27120",
            "name": "Pharmacie Ferrand-Gaillard",
            "address": "18 Rue Isambard 27120 PACY SUR EURE",
            "reasons": []
        }
    ],
    "29900": [
        {
            "id": 0,
            "url": "https://mapharma.net/29900",
            "zip": "29900",
            "name": "Pharmacie Les Filets Bleus",
            "address": "122 avenue de la Gare 29900 CONCARNEAU",
            "reasons": []
        }
    ],
    "29260": [
        {
            "id": 0,
            "url": "https://mapharma.net/29260",
            "zip": "29260",
            "name": "Pharmacie Caron",
            "address": "9 rue des Ecoliers RD 125 29260 PLOUIDER",
            "reasons": []
        }
    ],
    "30900": [
        {
            "id": 0,
            "url": "https://mapharma.net/30900",
            "zip": "30900",
            "name": "Grande Pharmacie Gerbaud",
            "address": "41 avenue Jean Jaur\u00e8s 30900 NIMES",
            "reasons": []
        }
    ],
    "31470": [
        {
            "id": 1,
            "url": "https://mapharma.net/31470-1",
            "zip": "31470",
            "name": "Pharmacie Du Chateau D'Eau",
            "address": "6 Avenue du Ch\u00e2teau d'eau 31470 FONSORBES",
            "reasons": []
        },
        {
            "id": 2,
            "url": "https://mapharma.net/31470-2",
            "zip": "31470",
            "name": "Pharmacie Du Lys",
            "address": "615A route de toulouse 31470 SAINT LYS",
            "reasons": []
        }
    ],
    "31600": [
        {
            "id": 0,
            "url": "https://mapharma.net/31600",
            "zip": "31600",
            "name": "Pharmacie Chavoix",
            "address": "153 Avenue Jacques Douzans 31600 MURET",
            "reasons": []
        }
    ],
    "31100": [
        {
            "id": 0,
            "url": "https://mapharma.net/31100",
            "zip": "31100",
            "name": "Pharmacie Des Oliviers",
            "address": "18 Rue de l'Aspin 31100 TOULOUSE",
            "reasons": []
        }
    ],
    "33000": [
        {
            "id": 0,
            "url": "https://mapharma.net/33000",
            "zip": "33000",
            "name": "Pharmacie Des Grands Hommes",
            "address": "1 place des grands hommes 33000 BORDEAUX",
            "reasons": []
        }
    ],
    "34570": [
        {
            "id": 0,
            "url": "https://mapharma.net/34570",
            "zip": "34570",
            "name": "Pharmacie De La Poste",
            "address": "14 Avenue du Passet 34570 PIGNAN",
            "reasons": []
        }
    ],
    "34000": [
        {
            "id": 1,
            "url": "https://mapharma.net/34000-1",
            "zip": "34000",
            "name": "Pharmacie Du Polygone",
            "address": "71 rue des Pertuisanes 34000 MONTPELLIER",
            "reasons": []
        },
        {
            "id": 2,
            "url": "https://mapharma.net/34000-2",
            "zip": "34000",
            "name": "Pharmacie Place De La Comedie",
            "address": "1 rue de Verdun 34000 MONTPELLIER",
            "reasons": []
        }
    ],
    "34070": [
        {
            "id": 0,
            "url": "https://mapharma.net/34070",
            "zip": "34070",
            "name": "Pharmacie Du Grand M",
            "address": "58 rue du Latium 34070 MONTPELLIER",
            "reasons": []
        }
    ],
    "38290": [
        {
            "id": 0,
            "url": "https://mapharma.net/38290",
            "zip": "38290",
            "name": "Pharmacie Du Centre",
            "address": "90, place Joseph Serlin 38290 LA VERPILLIERE",
            "reasons": []
        }
    ],
    "41350": [
        {
            "id": 0,
            "url": "https://mapharma.net/41350",
            "zip": "41350",
            "name": "Pharmacie De St Gervais",
            "address": "265 Rue des Clouseaux 41350 SAINT GERVAIS LA FORET",
            "reasons": []
        }
    ],
    "42000": [
        {
            "id": 0,
            "url": "https://mapharma.net/42000",
            "zip": "42000",
            "name": "Pharmacie Jacquard",
            "address": "2, place Jacquard 42000 SAINT ETIENNE",
            "reasons": []
        }
    ],
    "44300": [
        {
            "id": 0,
            "url": "https://mapharma.net/44300",
            "zip": "44300",
            "name": "Pharmacie De L'Eraudiere",
            "address": "CENTRE COMMERCIAL INTERMARCHE 173 ROUTE DE SAINT-JOSEPH 44300 NANTES",
            "reasons": []
        }
    ],
    "44600": [
        {
            "id": 0,
            "url": "https://mapharma.net/44600",
            "zip": "44600",
            "name": "Pharmacie De La Chesnaie",
            "address": "5 rue des Tro\u00e8nes 44600 SAINT NAZAIRE",
            "reasons": []
        }
    ],
    "44230": [
        {
            "id": 0,
            "url": "https://mapharma.net/44230",
            "zip": "44230",
            "name": "Pharmacie Cambronne",
            "address": "19 rue Maurice Daniel 44230 ST SEBASTIEN SUR LOIRE",
            "reasons": []
        }
    ],
    "45200": [
        {
            "id": 0,
            "url": "https://mapharma.net/45200",
            "zip": "45200",
            "name": "Pharmacie De La Chaussee",
            "address": "Centre Commercial de la Chauss\u00e9e 45200 MONTARGIS",
            "reasons": []
        }
    ],
    "45430": [
        {
            "id": 0,
            "url": "https://mapharma.net/45430",
            "zip": "45430",
            "name": "Pharmacie De Checy",
            "address": "Place du 8 mai 1945 45430 CHECY",
            "reasons": []
        }
    ],
    "47000": [
        {
            "id": 0,
            "url": "https://mapharma.net/47000",
            "zip": "47000",
            "name": "Pharmacie Agen Sud",
            "address": "46 Avenue d'Italie 47000 AGEN",
            "reasons": []
        }
    ],
    "49100": [
        {
            "id": 1,
            "url": "https://mapharma.net/49100-1",
            "zip": "49100",
            "name": "Grande Pharmacie St Serge",
            "address": "CENTRE COMMERCIAL ANGERS SAINT-SERGE 3 BOULEVARD GASTON RAMON 49100 ANGERS",
            "reasons": []
        },
        {
            "id": 2,
            "url": "https://mapharma.net/49100-2",
            "zip": "49100",
            "name": "Pharmacie Le Gall",
            "address": "27 RUE HOCHE ET 8 PLACE DE LA VISITATION 49100 ANGERS",
            "reasons": []
        },
        {
            "id": 3,
            "url": "https://mapharma.net/49100-3",
            "zip": "49100",
            "name": "Pharmacie Grand Maine",
            "address": "CENTRE CIAL GRAND MAINE RUE DU GRAND LAUNAY 49100 ANGERS",
            "reasons": []
        },
        {
            "id": 4,
            "url": "https://mapharma.net/49100-4",
            "zip": "49100",
            "name": "Nouvelle Pharmacie Pierre Lise",
            "address": "3 AVENUE PASTEUR 49100 ANGERS",
            "reasons": []
        },
        {
            "id": 5,
            "url": "https://mapharma.net/49100-5",
            "zip": "49100",
            "name": "Pharmacie De La Gare",
            "address": "5 ESPLANADE DE LA GARE 49100 ANGERS",
            "reasons": [
                {
                    "campagneId": "201",
                    "optionId": "1",
                    "optionName": "Vaccination COVID - 1\u00e8re injection (15 min.)"
                }
            ]
        },
        {
            "id": 6,
            "url": "https://mapharma.net/49100-6",
            "zip": "49100",
            "name": "Grande Pharmacie Du Pilori",
            "address": "6 PLACE DU PILORI 49100 ANGERS",
            "reasons": []
        },
        {
            "id": 7,
            "url": "https://mapharma.net/49100-7",
            "zip": "49100",
            "name": "Pharmacie Des Halles",
            "address": "78 RUE BAUDRIERE 49100 ANGERS",
            "reasons": [
                {
                    "campagneId": "177",
                    "optionId": "1",
                    "optionName": "Vaccination covid"
                }
            ]
        },
        {
            "id": 8,
            "url": "https://mapharma.net/49100-8",
            "zip": "49100",
            "name": "Grande Pharmacie De L'Universite",
            "address": "54 BD AYRAULT 49100 ANGERS",
            "reasons": []
        }
    ],
    "49080": [
        {
            "id": 0,
            "url": "https://mapharma.net/49080",
            "zip": "49080",
            "name": "Pharmacie De Bouchemaine",
            "address": "34 RUE CHEVRIERE 49080 BOUCHEMAINE",
            "reasons": []
        }
    ],
    "49125": [
        {
            "id": 0,
            "url": "https://mapharma.net/49125",
            "zip": "49125",
            "name": "Pharmacie Des Erables",
            "address": "PLACE PIERRE DE COUBERTIN 49125 TIERCE",
            "reasons": []
        }
    ],
    "51300": [
        {
            "id": 0,
            "url": "https://mapharma.net/51300",
            "zip": "51300",
            "name": "Pharmacie Regionale",
            "address": "4 Grande Rue de Vaux 51300 VITRY LE FRANCOIS",
            "reasons": []
        }
    ],
    "51200": [
        {
            "id": 0,
            "url": "https://mapharma.net/51200",
            "zip": "51200",
            "name": "Pharmacie Saint Vincent",
            "address": "6 rue Porte Lucas 51200 EPERNAY",
            "reasons": [
                {
                    "campagneId": "155",
                    "optionId": "1",
                    "optionName": "Vaccination AZ 2(25 et 26/03)"
                }
            ]
        }
    ],
    "51100": [
        {
            "id": 0,
            "url": "https://mapharma.net/51100",
            "zip": "51100",
            "name": "Pharmacie Saint Andre",
            "address": "34 rue Camille Lenoir 51100 REIMS",
            "reasons": []
        }
    ],
    "52100": [
        {
            "id": 0,
            "url": "https://mapharma.net/52100",
            "zip": "52100",
            "name": "Pharmacie Chene Saint Amand",
            "address": "ZAC du Ch\u00eane Saint Amand 52100 SAINT DIZIER",
            "reasons": []
        }
    ],
    "53100": [
        {
            "id": 0,
            "url": "https://mapharma.net/53100",
            "zip": "53100",
            "name": "Pharmacie Laval Murat",
            "address": "CENTRE COMMERCIAL MURAT 53000 LAVAL",
            "reasons": [
                {
                    "campagneId": "191",
                    "optionId": "1",
                    "optionName": "Vaccination anti COVID ASTRAZENECA (15 min.)"
                }
            ]
        }
    ],
    "53000": [
        {
            "id": 1,
            "url": "https://mapharma.net/53000-1",
            "zip": "53000",
            "name": "Pharmacie Saint Nicolas",
            "address": "4 rue Myriam Lepert 53000 LAVAL",
            "reasons": []
        },
        {
            "id": 2,
            "url": "https://mapharma.net/53000-2",
            "zip": "53000",
            "name": "Pharmacie De La Prefecture",
            "address": "13 Place Jean Moulin 53000 LAVAL",
            "reasons": []
        }
    ],
    "54460": [
        {
            "id": 0,
            "url": "https://mapharma.net/54460",
            "zip": "54460",
            "name": "Pharmacie Du Village",
            "address": "16 rue de la gare 54460 LIVERDUN",
            "reasons": []
        }
    ],
    "54200": [
        {
            "id": 0,
            "url": "https://mapharma.net/54200",
            "zip": "54200",
            "name": "Pharmacie Gambetta",
            "address": "1 rue Gambetta 54200 TOUL",
            "reasons": []
        }
    ],
    "54700": [
        {
            "id": 0,
            "url": "https://mapharma.net/54700",
            "zip": "54700",
            "name": "Pharmacie Chevalier-Pax",
            "address": "4 rue Victor Hugo 54700 PONT A MOUSSON",
            "reasons": []
        }
    ],
    "54120": [
        {
            "id": 0,
            "url": "https://mapharma.net/54120",
            "zip": "54120",
            "name": "Pharmacie De La Dermoyse",
            "address": "12 rue Adrien Michaut 54120 BACCARAT",
            "reasons": []
        }
    ],
    "54300": [
        {
            "id": 0,
            "url": "https://mapharma.net/54300",
            "zip": "54300",
            "name": "Selarl Pharmacie De La Vezouze",
            "address": "15 rue Chanzy 54300 LUNEVILLE",
            "reasons": []
        }
    ],
    "54190": [
        {
            "id": 0,
            "url": "https://mapharma.net/54190",
            "zip": "54190",
            "name": "Pharmacie Mellinger",
            "address": "24 rue Carnot 54190 VILLERUPT",
            "reasons": []
        }
    ],
    "54570": [
        {
            "id": 0,
            "url": "https://mapharma.net/54570",
            "zip": "54570",
            "name": "Pharmacie De La Fontaine",
            "address": "10, rue Fran\u00e7ois Mitterrand 54570 FOUG",
            "reasons": []
        }
    ],
    "54520": [
        {
            "id": 0,
            "url": "https://mapharma.net/54520",
            "zip": "54520",
            "name": "Pharmacie Hamon",
            "address": "85 Avenue de la Lib\u00e9ration 54520 LAXOU",
            "reasons": []
        }
    ],
    "54790": [
        {
            "id": 0,
            "url": "https://mapharma.net/54790",
            "zip": "54790",
            "name": "Pharmacie Saluzzi",
            "address": "10 avenue de la R\u00e9publique 54790 MANCIEULLES",
            "reasons": []
        }
    ],
    "54350": [
        {
            "id": 0,
            "url": "https://mapharma.net/54350",
            "zip": "54350",
            "name": "Pharmacie Du Plateau",
            "address": "85 route de Longwy 54350 MONT SAINT MARTIN",
            "reasons": []
        }
    ],
    "54000": [
        {
            "id": 0,
            "url": "https://mapharma.net/54000",
            "zip": "54000",
            "name": "Pharmacie De La Cathedrale",
            "address": "59 rue Saint Georges 54000 NANCY",
            "reasons": []
        }
    ],
    "54500": [
        {
            "id": 1,
            "url": "https://mapharma.net/54500-1",
            "zip": "54500",
            "name": "Pharmacie Des Nations",
            "address": "23 Boulevard de l'EuropeCCial des nations 54500 VANDOEUVRE LES NANCY",
            "reasons": []
        },
        {
            "id": 2,
            "url": "https://mapharma.net/54500-2",
            "zip": "54500",
            "name": "Pharmacie Du Velodrome",
            "address": "157b, avenue du G\u00e9n\u00e9ral Leclerc 54500 VANDOEUVRE LES NANCY",
            "reasons": []
        }
    ],
    "56700": [
        {
            "id": 0,
            "url": "https://mapharma.net/56700",
            "zip": "56700",
            "name": "Pharmacie De La Maison Rouge",
            "address": "21 avenue de la R\u00e9publique 56700 HENNEBONT",
            "reasons": []
        }
    ],
    "56300": [
        {
            "id": 0,
            "url": "https://mapharma.net/56300",
            "zip": "56300",
            "name": "Pharmacie Saint Niel",
            "address": "CCial Leclerc Lieu Dit Saint Niel 56300 PONTIVY",
            "reasons": []
        }
    ],
    "57730": [
        {
            "id": 0,
            "url": "https://mapharma.net/57730",
            "zip": "57730",
            "name": "Pharmacie De Monchy",
            "address": "2 avenue Foch 57730 FOLSCHVILLER",
            "reasons": [
                {
                    "campagneId": "48",
                    "optionId": "1",
                    "optionName": "Vaccination Covid19"
                }
            ]
        }
    ],
    "57320": [
        {
            "id": 0,
            "url": "https://mapharma.net/57320",
            "zip": "57320",
            "name": "Pharmacie Du Lion",
            "address": "16, rue de la R\u00e9publique 57320 BOUZONVILLE",
            "reasons": []
        }
    ],
    "57450": [
        {
            "id": 0,
            "url": "https://mapharma.net/57450",
            "zip": "57450",
            "name": "Pharmacie Principale",
            "address": "4b, rue de Neufeld 57450 FAREBERSVILLER",
            "reasons": []
        }
    ],
    "57200": [
        {
            "id": 0,
            "url": "https://mapharma.net/57200",
            "zip": "57200",
            "name": "Pharmacie Antoine",
            "address": "1 Rue Chamborand 57200 SARREGUEMINES",
            "reasons": []
        }
    ],
    "57970": [
        {
            "id": 0,
            "url": "https://mapharma.net/57970",
            "zip": "57970",
            "name": "Pharmacie Saint Nicolas",
            "address": "111 Avenue des Nations 57970 YUTZ",
            "reasons": []
        }
    ],
    "57160": [
        {
            "id": 0,
            "url": "https://mapharma.net/57160",
            "zip": "57160",
            "name": "Pharmacie De La Plage",
            "address": "11 rue de Metz 57160 MOULINS LES METZ",
            "reasons": []
        }
    ],
    "57070": [
        {
            "id": 0,
            "url": "https://mapharma.net/57070",
            "zip": "57070",
            "name": "Pharmacie De La Tannerie",
            "address": "3, rue Fran\u00e7ois Simon 57070 SAINT JULIEN LES METZ",
            "reasons": []
        }
    ],
    "57185": [
        {
            "id": 0,
            "url": "https://mapharma.net/57185",
            "zip": "57185",
            "name": "Pharmacie De L'Orne",
            "address": "48 Rue G.Clemenceau 57185 CLOUANGE",
            "reasons": []
        }
    ],
    "57100": [
        {
            "id": 0,
            "url": "https://mapharma.net/57100",
            "zip": "57100",
            "name": "Pharmacie Du Lion",
            "address": "3 Rue St Nicolas 57100 THIONVILLE",
            "reasons": []
        }
    ],
    "57000": [
        {
            "id": 0,
            "url": "https://mapharma.net/57000",
            "zip": "57000",
            "name": "Pharmacie De L'Aigle",
            "address": "8 rue du Palais 57000 METZ",
            "reasons": []
        }
    ],
    "57540": [
        {
            "id": 0,
            "url": "https://mapharma.net/57540",
            "zip": "57540",
            "name": "Pharmacie Principale",
            "address": "175 rue du G\u00e9n\u00e9ral de Gaulle 57540 PETITE ROSSELLE",
            "reasons": []
        }
    ],
    "59400": [
        {
            "id": 0,
            "url": "https://mapharma.net/59400",
            "zip": "59400",
            "name": "Pharmacie De La Grand Place",
            "address": "34 place Aristide Briand 59400 CAMBRAI",
            "reasons": []
        }
    ],
    "59300": [
        {
            "id": 0,
            "url": "https://mapharma.net/59300",
            "zip": "59300",
            "name": "Pharmacie De La Fontaine",
            "address": "10 rue de Paris 59300 VALENCIENNES",
            "reasons": []
        }
    ],
    "59530": [
        {
            "id": 0,
            "url": "https://mapharma.net/59530",
            "zip": "59530",
            "name": "Pharmacie Des Remparts",
            "address": "2 rue Gambetta 59530 LE QUESNOY",
            "reasons": [
                {
                    "campagneId": "102",
                    "optionId": "1",
                    "optionName": "1\u00e8re injection (10 min.)"
                }
            ]
        }
    ],
    "59553": [
        {
            "id": 0,
            "url": "https://mapharma.net/59553",
            "zip": "59553",
            "name": "Pharmacie Du Jardin Zen",
            "address": "493 rue Jean Jaur\u00e8s 59553 CUINCY",
            "reasons": []
        }
    ],
    "59119": [
        {
            "id": 0,
            "url": "https://mapharma.net/59119",
            "zip": "59119",
            "name": "Pharmacie Pasteur",
            "address": "64 rue Pasteur 59119 WAZIERS",
            "reasons": []
        }
    ],
    "60000": [
        {
            "id": 0,
            "url": "https://mapharma.net/60000",
            "zip": "60000",
            "name": "Pharmacie Lombard",
            "address": "10 rue Maurice Segonds 60000 BEAUVAIS",
            "reasons": []
        }
    ],
    "60550": [
        {
            "id": 0,
            "url": "https://mapharma.net/60550",
            "zip": "60550",
            "name": "Pharmacie De L'Eglise",
            "address": "6 Place de l'Eglise 60550 VERNEUIL EN HALATTE",
            "reasons": []
        }
    ],
    "62700": [
        {
            "id": 0,
            "url": "https://mapharma.net/62700",
            "zip": "62700",
            "name": "Pharmacie Du Lycee",
            "address": "272 rue Alfred Leroy 62700 BRUAY LA BUISSIERE",
            "reasons": []
        }
    ],
    "63100": [
        {
            "id": 0,
            "url": "https://mapharma.net/63100",
            "zip": "63100",
            "name": "Grande Pharmacie Du Coq",
            "address": "CCial Clermont Nord Bld Etienne Cl\u00e9mentel 63100 CLERMONT FERRAND",
            "reasons": []
        }
    ],
    "64800": [
        {
            "id": 0,
            "url": "https://mapharma.net/64800",
            "zip": "64800",
            "name": "Pharmacie De La Bastide",
            "address": "chemin de la Montjoie 64800 NAY",
            "reasons": []
        }
    ],
    "67150": [
        {
            "id": 0,
            "url": "https://mapharma.net/67150",
            "zip": "67150",
            "name": "Pharmacie De Gerstheim",
            "address": "22 rue du G\u00e9n\u00e9ral Koenig 67150 GERSTHEIM",
            "reasons": []
        }
    ],
    "67000": [
        {
            "id": 0,
            "url": "https://mapharma.net/67000",
            "zip": "67000",
            "name": "Pharmacie Du Pont De L'Europe",
            "address": "9 Rue de l'Abb\u00e9 Fran\u00e7ois Xavier Scherer 67000 STRASBOURG",
            "reasons": [
                {
                    "campagneId": "120",
                    "optionId": "1",
                    "optionName": "Test Antig\u00e9nique (15 min.)"
                },
                {
                    "campagneId": "120",
                    "optionId": "2",
                    "optionName": "Test S\u00e9rologique (15 min.)"
                }
            ]
        }
    ],
    "68000": [
        {
            "id": 1,
            "url": "https://mapharma.net/68000-1",
            "zip": "68000",
            "name": "Pharmacie Du Centre",
            "address": "97 route de Neuf-Brisach 68000 COLMAR",
            "reasons": []
        },
        {
            "id": 2,
            "url": "https://mapharma.net/68000-2",
            "zip": "68000",
            "name": "Pharmacie Marck",
            "address": "58 rue des Marchands 68000 COLMAR",
            "reasons": []
        }
    ],
    "68110": [
        {
            "id": 0,
            "url": "https://mapharma.net/68110",
            "zip": "68110",
            "name": "Apv Pharmacie Selarl",
            "address": "20 rue Hoffet 68110 ILLZACH",
            "reasons": []
        }
    ],
    "68200": [
        {
            "id": 0,
            "url": "https://mapharma.net/68200",
            "zip": "68200",
            "name": "Pharma 6",
            "address": "230-232 rue de Belfort 68200 MULHOUSE",
            "reasons": [
                {
                    "campagneId": "168",
                    "optionId": "1",
                    "optionName": "VACCINATION COVID"
                }
            ]
        }
    ],
    "68270": [
        {
            "id": 0,
            "url": "https://mapharma.net/68270",
            "zip": "68270",
            "name": "Nouvelle Pharmacie Centrale",
            "address": "22 Rue Markstein 68270 WITTENHEIM",
            "reasons": []
        }
    ],
    "68300": [
        {
            "id": 0,
            "url": "https://mapharma.net/68300",
            "zip": "68300",
            "name": "Pharmacie Trinationale",
            "address": "32 avenue de Bale 68300 SAINT LOUIS",
            "reasons": []
        }
    ],
    "69002": [
        {
            "id": 0,
            "url": "https://mapharma.net/69002",
            "zip": "69002",
            "name": "Grande Pharmacie Des Voutes",
            "address": "5 Cours Charlemagne 69002 LYON",
            "reasons": []
        }
    ],
    "70300": [
        {
            "id": 0,
            "url": "https://mapharma.net/70300",
            "zip": "70300",
            "name": "Pharmacie Du Faubourg",
            "address": "30 bis rue du Faubourg 70300 CITERS",
            "reasons": [
                {
                    "campagneId": "70",
                    "optionId": "1",
                    "optionName": "Primo vaccination (15 min.)"
                },
                {
                    "campagneId": "70",
                    "optionId": "2",
                    "optionName": "Rappel (15 min.)"
                }
            ]
        }
    ],
    "70200": [
        {
            "id": 1,
            "url": "https://mapharma.net/70200-1",
            "zip": "70200",
            "name": "La Pharmacie Centrale",
            "address": "27 Avenue de la R\u00e9publique 70200 LURE",
            "reasons": []
        },
        {
            "id": 2,
            "url": "https://mapharma.net/70200-2",
            "zip": "70200",
            "name": "La Pharmacie Frechin",
            "address": "1 Avenue de la R\u00e9publique 70200 LURE",
            "reasons": []
        }
    ],
    "72100": [
        {
            "id": 0,
            "url": "https://mapharma.net/72100",
            "zip": "72100",
            "name": "Pharmacie Saint Joseph",
            "address": "2 Avenue d'Haouza 72100 LE MANS",
            "reasons": []
        }
    ],
    "75001": [
        {
            "id": 0,
            "url": "https://mapharma.net/75001",
            "zip": "75001",
            "name": "Hdf Parapharmacie",
            "address": "47 Boulevard S\u00e9bastopol 75001 PARIS",
            "reasons": []
        }
    ],
    "75004": [
        {
            "id": 0,
            "url": "https://mapharma.net/75004",
            "zip": "75004",
            "name": "Grande Pharmacie Premiere",
            "address": "24 bld S\u00e9bastopol 75004 PARIS",
            "reasons": []
        }
    ],
    "75010": [
        {
            "id": 0,
            "url": "https://mapharma.net/75010",
            "zip": "75010",
            "name": "Pharmacie Centrale Du Nord",
            "address": "132 Rue Lafayette 75010 PARIS",
            "reasons": []
        }
    ],
    "75011": [
        {
            "id": 0,
            "url": "https://mapharma.net/75011",
            "zip": "75011",
            "name": "Grande Pharmacie St Maur",
            "address": "65 Rue Saint Maur 75011 PARIS",
            "reasons": []
        }
    ],
    "75016": [
        {
            "id": 0,
            "url": "https://mapharma.net/75016",
            "zip": "75016",
            "name": "Pharmacie Etoile-Iena",
            "address": "37, rue La P\u00e9rouse 75016 PARIS",
            "reasons": []
        }
    ],
    "77550": [
        {
            "id": 0,
            "url": "https://mapharma.net/77550",
            "zip": "77550",
            "name": "Pharmacie De La Mairie",
            "address": "116 Avenue Philippe Bur 77550 MOISSY CRAMAYEL",
            "reasons": []
        }
    ],
    "77000": [
        {
            "id": 0,
            "url": "https://mapharma.net/77000",
            "zip": "77000",
            "name": "Pharmacie De La Rochette",
            "address": "69 rue Honor\u00e9 Daumier 77000 LA ROCHETTE",
            "reasons": []
        }
    ],
    "78280": [
        {
            "id": 0,
            "url": "https://mapharma.net/78280",
            "zip": "78280",
            "name": "Pharmacie Des Saules",
            "address": "5 Square Camille Pissarro 78280 GUYANCOURT",
            "reasons": []
        }
    ],
    "78760": [
        {
            "id": 0,
            "url": "https://mapharma.net/78760",
            "zip": "78760",
            "name": "Pharmacie De Jouars Pontchartrain",
            "address": "4 a rue des Artisans 78760 JOUARS PONTCHARTRAIN",
            "reasons": []
        }
    ],
    "78500": [
        {
            "id": 0,
            "url": "https://mapharma.net/78500",
            "zip": "78500",
            "name": "Pharmacie Du Val (menantaud)",
            "address": "155 Bld Henri-Barbusse 78500 SARTROUVILLE",
            "reasons": []
        }
    ],
    "79220": [
        {
            "id": 0,
            "url": "https://mapharma.net/79220",
            "zip": "79220",
            "name": "Pharmacie Chetouane",
            "address": "52 rue de la Grange Lucas 79220 CHAMPDENIERS SAINT DENIS",
            "reasons": []
        }
    ],
    "80100": [
        {
            "id": 0,
            "url": "https://mapharma.net/80100",
            "zip": "80100",
            "name": "Pharmacie Du Pilori",
            "address": "14 place du Pilori 80100 ABBEVILLE",
            "reasons": []
        }
    ],
    "80000": [
        {
            "id": 1,
            "url": "https://mapharma.net/80000-1",
            "zip": "80000",
            "name": "Pharmacie Thomas Henocq",
            "address": "rue du 8 mai 1945 80000 AMIENS",
            "reasons": []
        },
        {
            "id": 2,
            "url": "https://mapharma.net/80000-2",
            "zip": "80000",
            "name": "Pharmacie Guyon Lamirand",
            "address": "3 place des Provinces Fran\u00e7aises 80000 AMIENS",
            "reasons": []
        }
    ],
    "80230": [
        {
            "id": 0,
            "url": "https://mapharma.net/80230",
            "zip": "80230",
            "name": "Grande Pharmacie De La Baie",
            "address": "29 place des Pilotes 80230 SAINT VALERY SUR SOMME",
            "reasons": []
        }
    ],
    "80330": [
        {
            "id": 0,
            "url": "https://mapharma.net/80330",
            "zip": "80330",
            "name": "Pharmacie De La Croix De Fer",
            "address": "105 Avenue Henri Barbusse 80330 LONGUEAU",
            "reasons": []
        }
    ],
    "81100": [
        {
            "id": 0,
            "url": "https://mapharma.net/81100",
            "zip": "81100",
            "name": "Pharmacie Du Martinet",
            "address": "1, avenue Georges Pompidou 81100 CASTRES",
            "reasons": []
        }
    ],
    "82400": [
        {
            "id": 0,
            "url": "https://mapharma.net/82400",
            "zip": "82400",
            "name": "Pharmacie Du Placat",
            "address": "1 Place Jean Baptiste Chaumeil 82400 VALENCE D AGEN",
            "reasons": []
        }
    ],
    "83400": [
        {
            "id": 0,
            "url": "https://mapharma.net/83400",
            "zip": "83400",
            "name": "Pharmacie Cledon",
            "address": "2 avenue du G\u00e9n\u00e9ral de Gaulle 83400 HYERES",
            "reasons": []
        }
    ],
    "84000": [
        {
            "id": 1,
            "url": "https://mapharma.net/84000-1",
            "zip": "84000",
            "name": "Pharmacie Des Rotondes",
            "address": "68 Avenue Pierre S\u00e9mard 84000 AVIGNON",
            "reasons": []
        },
        {
            "id": 2,
            "url": "https://mapharma.net/84000-2",
            "zip": "84000",
            "name": "Pharmacie La Courtine",
            "address": "Centre Cial Carrefour ZAC La Courtine 84000 AVIGNON",
            "reasons": []
        }
    ],
    "85300": [
        {
            "id": 0,
            "url": "https://mapharma.net/85300",
            "zip": "85300",
            "name": "Pharmacie Chevillon Selarl",
            "address": "3 Rue Carnot 85300 CHALLANS",
            "reasons": []
        }
    ],
    "85000": [
        {
            "id": 0,
            "url": "https://mapharma.net/85000",
            "zip": "85000",
            "name": "Pharmacie Du Val D'Ornay",
            "address": "Rue des Platanes 85000 LA ROCHE SUR YON",
            "reasons": []
        }
    ],
    "86100": [
        {
            "id": 0,
            "url": "https://mapharma.net/86100",
            "zip": "86100",
            "name": "Pharmacie De L'Espace Lyautey",
            "address": "32 rue Marius Montier 86100 CHATELLERAULT",
            "reasons": []
        }
    ],
    "86500": [
        {
            "id": 0,
            "url": "https://mapharma.net/86500",
            "zip": "86500",
            "name": "Pharmacie St Nicolas",
            "address": "Centre Leclerc 86500 MONTMORILLON",
            "reasons": []
        }
    ],
    "86000": [
        {
            "id": 0,
            "url": "https://mapharma.net/86000",
            "zip": "86000",
            "name": "Pharmacie Bel Air",
            "address": "47 rue Jean Mermoz 86000 POITIERS",
            "reasons": []
        }
    ],
    "88300": [
        {
            "id": 0,
            "url": "https://mapharma.net/88300",
            "zip": "88300",
            "name": "Pharmacie Evrard",
            "address": "1 rue Neuve 88300 NEUFCHATEAU",
            "reasons": [
                {
                    "campagneId": "131",
                    "optionId": "1",
                    "optionName": "Vaccination Covid 1 injection"
                }
            ]
        }
    ],
    "88600": [
        {
            "id": 0,
            "url": "https://mapharma.net/88600",
            "zip": "88600",
            "name": "Pharmacie Bloch",
            "address": "8 route de G\u00e9rardmer 88600 BRUYERES",
            "reasons": []
        }
    ],
    "88120": [
        {
            "id": 0,
            "url": "https://mapharma.net/88120",
            "zip": "88120",
            "name": "Pharmacie D'Alice",
            "address": "12 rue Ren\u00e9 Demangeon 88120 VAGNEY",
            "reasons": []
        }
    ],
    "88150": [
        {
            "id": 0,
            "url": "https://mapharma.net/88150",
            "zip": "88150",
            "name": "Pharmacie Bertrand",
            "address": "2 Rue de Lorraine 88150 THAON LES VOSGES",
            "reasons": [
                {
                    "campagneId": "128",
                    "optionId": "1",
                    "optionName": "Vaccination COVID 1 injection"
                }
            ]
        }
    ],
    "88540": [
        {
            "id": 0,
            "url": "https://mapharma.net/88540",
            "zip": "88540",
            "name": "Pharmacie Des Sources",
            "address": "3 place de la Mairie 88540 BUSSANG",
            "reasons": []
        }
    ],
    "88000": [
        {
            "id": 0,
            "url": "https://mapharma.net/88000",
            "zip": "88000",
            "name": "Pharmacie Du Saut Le Cerf",
            "address": "7 route de Jeuxey 88000 EPINAL",
            "reasons": []
        }
    ],
    "88100": [
        {
            "id": 0,
            "url": "https://mapharma.net/88100",
            "zip": "88100",
            "name": "Pharmacie Bruelle",
            "address": "120 Rue d'Alsace 88100 SAINT DIE DES VOSGES",
            "reasons": [
                {
                    "campagneId": "96",
                    "optionId": "1",
                    "optionName": "COVID 1ERE INJ ASTRA ZENECA (30 min.)"
                }
            ]
        }
    ],
    "88160": [
        {
            "id": 1,
            "url": "https://mapharma.net/88160-1",
            "zip": "88160",
            "name": "Pharmacie Des Arcades",
            "address": "2c rue des Tilleuls 88160 LE THILLOT",
            "reasons": []
        },
        {
            "id": 2,
            "url": "https://mapharma.net/88160-2",
            "zip": "88160",
            "name": "Pharmacie De La Poste",
            "address": "26 rue Charles de Gaulle 88160 LE THILLOT",
            "reasons": []
        }
    ],
    "88400": [
        {
            "id": 0,
            "url": "https://mapharma.net/88400",
            "zip": "88400",
            "name": "Pharmacie Des Lacs",
            "address": "158 rue de l'H\u00f4tel de Ville 88400 XONRUPT LONGEMER",
            "reasons": [
                {
                    "campagneId": "92",
                    "optionId": "1",
                    "optionName": "Vaccination Covid-19"
                }
            ]
        }
    ],
    "90100": [
        {
            "id": 0,
            "url": "https://mapharma.net/90100",
            "zip": "90100",
            "name": "Pharmacie Slk",
            "address": "20 Faubourg d'Alsace 90100 DELLE",
            "reasons": []
        }
    ],
    "90850": [
        {
            "id": 0,
            "url": "https://mapharma.net/90850",
            "zip": "90850",
            "name": "Pharmacie Els",
            "address": "58B Rue du G\u00e9n\u00e9ral de Gaulle 90850 ESSERT",
            "reasons": []
        }
    ],
    "91240": [
        {
            "id": 0,
            "url": "https://mapharma.net/91240",
            "zip": "91240",
            "name": "Pharmacie Hamani",
            "address": "Centre Cial du Bois des Roches 91240 SAINT MICHEL SUR ORGE",
            "reasons": []
        }
    ],
    "92380": [
        {
            "id": 0,
            "url": "https://mapharma.net/92380",
            "zip": "92380",
            "name": "Pharmacie Du Golf",
            "address": "2 rue du 19 Janvier 92380 GARCHES",
            "reasons": []
        }
    ],
    "93300": [
        {
            "id": 0,
            "url": "https://mapharma.net/93300",
            "zip": "93300",
            "name": "Pharmacie Du Millenaire",
            "address": "CC Le Mill\u00e9naire, 23 rue Madeleine Vionnet 93300 AUBERVILLIERS",
            "reasons": []
        }
    ],
    "93200": [
        {
            "id": 0,
            "url": "https://mapharma.net/93200",
            "zip": "93200",
            "name": "Pharmacie De La Legion D'Honneur",
            "address": "79 Rue Gabriel P\u00e9ri 93200 SAINT DENIS",
            "reasons": []
        }
    ],
    "94210": [
        {
            "id": 0,
            "url": "https://mapharma.net/94210",
            "zip": "94210",
            "name": "Pharmacie Bismuth",
            "address": "69 Avenue de Bonneuil 94210 LA VARENNE SAINT HILAIRE",
            "reasons": []
        }
    ],
    "95200": [
        {
            "id": 0,
            "url": "https://mapharma.net/95200",
            "zip": "95200",
            "name": "Pharmacie Du Village",
            "address": "34, rue Pierre Brossolette 95200 SARCELLES",
            "reasons": []
        }
    ],
    "97139": [
        {
            "id": 0,
            "url": "https://mapharma.net/97139",
            "zip": "97139",
            "name": "Pharmacie De Grand-Camp",
            "address": "CCial La Rocade -Super U 97139 LES ABYMES",
            "reasons": []
        }
    ],
    "97121": [
        {
            "id": 0,
            "url": "https://mapharma.net/97121",
            "zip": "97121",
            "name": "Pharmacie De La Chapelle",
            "address": "Rue Achille Ren\u00e9 Boisneuf 97121 ANSE BERTRAND",
            "reasons": []
        }
    ],
    "97122": [
        {
            "id": 0,
            "url": "https://mapharma.net/97122",
            "zip": "97122",
            "name": "Pharmacie De La Jaille",
            "address": "Centre commercial Darty, La Jaille 97122 BAIE MAHAULT",
            "reasons": []
        }
    ],
    "97113": [
        {
            "id": 0,
            "url": "https://mapharma.net/97113",
            "zip": "97113",
            "name": "Pharmacie Centrale",
            "address": "37 rue des Caramboliers 97113 GOURBEYRE",
            "reasons": []
        }
    ],
    "97111": [
        {
            "id": 0,
            "url": "https://mapharma.net/97111",
            "zip": "97111",
            "name": "Pharmacie Bordi",
            "address": "27 rue de Bragelogne 97111 MORNE A L EAU",
            "reasons": []
        }
    ],
    "97131": [
        {
            "id": 0,
            "url": "https://mapharma.net/97131",
            "zip": "97131",
            "name": "Pharmacie Rose Cayenne",
            "address": "3 Rue H\u00e9g\u00e9sippe L\u00e9gitimus 97131 PETIT CANAL",
            "reasons": []
        }
    ],
    "97116": [
        {
            "id": 0,
            "url": "https://mapharma.net/97116",
            "zip": "97116",
            "name": "Pharmacie Pont",
            "address": "Rue de la R\u00e9publique 97116 POINTE NOIRE",
            "reasons": []
        }
    ],
    "97120": [
        {
            "id": 0,
            "url": "https://mapharma.net/97120",
            "zip": "97120",
            "name": "Pharmacie Saminadin",
            "address": "Place du March\u00e9 97120 SAINT CLAUDE",
            "reasons": []
        }
    ],
    "97118": [
        {
            "id": 0,
            "url": "https://mapharma.net/97118",
            "zip": "97118",
            "name": "Pharmacie Du Golf",
            "address": "Rue du G\u00e9n\u00e9ral de Gaulle 97118 SAINT FRANCOIS",
            "reasons": []
        }
    ],
    "97180": [
        {
            "id": 0,
            "url": "https://mapharma.net/97180",
            "zip": "97180",
            "name": "Pharmacie Les Camelias",
            "address": "Chateaubrun 97180 SAINTE ANNE",
            "reasons": []
        }
    ],
    "97115": [
        {
            "id": 0,
            "url": "https://mapharma.net/97115",
            "zip": "97115",
            "name": "Pharmacie Hamot",
            "address": "Grande rue du Bourg 97115 SAINTE ROSE",
            "reasons": []
        }
    ],
    "97114": [
        {
            "id": 0,
            "url": "https://mapharma.net/97114",
            "zip": "97114",
            "name": "Pharmacie Vainqueur-Christophe",
            "address": "Le Bourg 97114 TROIS RIVIERES",
            "reasons": []
        }
    ],
    "97119": [
        {
            "id": 0,
            "url": "https://mapharma.net/97119",
            "zip": "97119",
            "name": "Pharmacie Du Stade",
            "address": "Boulevard des Habissois Souverains 97119 VIEUX HABITANTS",
            "reasons": []
        }
    ],
    "97218": [
        {
            "id": 0,
            "url": "https://mapharma.net/97218",
            "zip": "97218",
            "name": "Pharmacie Arcade",
            "address": "11 rue Joseph Zephir 97218 BASSE POINTE",
            "reasons": []
        }
    ],
    "97223": [
        {
            "id": 0,
            "url": "https://mapharma.net/97223",
            "zip": "97223",
            "name": "Pharmacie Charpentier",
            "address": "38 rue Justin ROC 97223 LE DIAMANT",
            "reasons": []
        }
    ],
    "97200": [
        {
            "id": 0,
            "url": "https://mapharma.net/97200",
            "zip": "97200",
            "name": "Pharmacie Gely Kst",
            "address": "angle rue Lamartine & Isambert 97200 FORT DE FRANCE",
            "reasons": [
                {
                    "campagneId": "60",
                    "optionId": "1",
                    "optionName": "Vaccination covid 1 injection (30 min.)"
                },
                {
                    "campagneId": "81",
                    "optionId": "1",
                    "optionName": "Entretien di\u00e9t\u00e9tique"
                },
                {
                    "campagneId": "82",
                    "optionId": "1",
                    "optionName": "Entretien micro nutrition aroma"
                },
                {
                    "campagneId": "193",
                    "optionId": "1",
                    "optionName": "Test Antigeniques COVID Naso-Pharynges"
                },
                {
                    "campagneId": "196",
                    "optionId": "1",
                    "optionName": "Test Covid TROC Sanguins"
                }
            ]
        }
    ],
    "97260": [
        {
            "id": 0,
            "url": "https://mapharma.net/97260",
            "zip": "97260",
            "name": "Pharmacie Arielle Deris",
            "address": "23 rue Andr\u00e9 Aliker 97260 MORNE ROUGE",
            "reasons": []
        }
    ],
    "97233": [
        {
            "id": 0,
            "url": "https://mapharma.net/97233",
            "zip": "97233",
            "name": "Pharmacie Des Caraibes",
            "address": "Quart Anse Madame 97233 SCHOELCHER",
            "reasons": []
        }
    ],
    "97300": [
        {
            "id": 1,
            "url": "https://mapharma.net/97300-1",
            "zip": "97300",
            "name": "Pharmacie De La Madeleine",
            "address": "38 avenue des Flamboyants 97300 CAYENNE",
            "reasons": []
        },
        {
            "id": 2,
            "url": "https://mapharma.net/97300-2",
            "zip": "97300",
            "name": "Pharmacie Internationale",
            "address": "32 rue Ren\u00e9 Barthelemy 97300 CAYENNE",
            "reasons": []
        },
        {
            "id": 3,
            "url": "https://mapharma.net/97300-3",
            "zip": "97300",
            "name": "Pharmacie Neron",
            "address": "Cit\u00e9 CHATENAY 1route de MONTABO 97300 CAYENNE",
            "reasons": []
        }
    ],
    "97354": [
        {
            "id": 0,
            "url": "https://mapharma.net/97354",
            "zip": "97354",
            "name": "Pharmacie De Montjoly",
            "address": "267 route de Montjoly 97354 REMIRE MONTJOLY",
            "reasons": []
        }
    ],
    "97320": [
        {
            "id": 1,
            "url": "https://mapharma.net/97320-1",
            "zip": "97320",
            "name": "Pharmacie De La Mairie",
            "address": "36 rue du Colonel CHANDONBP 13 97320 ST LAURENT DU MARONI",
            "reasons": []
        },
        {
            "id": 2,
            "url": "https://mapharma.net/97320-2",
            "zip": "97320",
            "name": "Pharmacie De La Zac",
            "address": "4 place Emile Zola 97320 SAINT LAURENT DU MARONI",
            "reasons": []
        }
    ],
    "97425": [
        {
            "id": 1,
            "url": "https://mapharma.net/97425-1",
            "zip": "97425",
            "name": "Pharmacie Du Ruisseau",
            "address": "ZAC du Ruisseau - 1A Chemin Merlo 97425 LES AVIRONS",
            "reasons": []
        },
        {
            "id": 2,
            "url": "https://mapharma.net/97425-2",
            "zip": "97425",
            "name": "Pharmacie De La Foret",
            "address": "3 Route des Merles 97425 LE TEVELAVE LES AVIRONS",
            "reasons": []
        }
    ],
    "97412": [
        {
            "id": 0,
            "url": "https://mapharma.net/97412",
            "zip": "97412",
            "name": "Pharmacie De Bras Panon",
            "address": "70 Route Nationale 2 97412 BRAS PANON",
            "reasons": []
        }
    ],
    "97427": [
        {
            "id": 0,
            "url": "https://mapharma.net/97427",
            "zip": "97427",
            "name": "Pharmacie Du Sable Noir",
            "address": "38 Avenue Octave B\u00e9nard 97427 L ETANG SALE",
            "reasons": []
        }
    ],
    "97429": [
        {
            "id": 0,
            "url": "https://mapharma.net/97429",
            "zip": "97429",
            "name": "Pharmacie Du Centre",
            "address": "295 rue Mah\u00e9 de la Bourdonnais 97429 PETITE ILE",
            "reasons": []
        }
    ],
    "97420": [
        {
            "id": 1,
            "url": "https://mapharma.net/97420-1",
            "zip": "97420",
            "name": "Pharmapointe",
            "address": "2 Rue Alsace Lorraine 97420 LE PORT",
            "reasons": []
        },
        {
            "id": 2,
            "url": "https://mapharma.net/97420-2",
            "zip": "97420",
            "name": "Pharmacie Du Sacre Coeur",
            "address": "CENTRE COMMERCIAL JUMBO SCORE RTE DU SACRE COEUR 97420 LE PORT",
            "reasons": []
        },
        {
            "id": 3,
            "url": "https://mapharma.net/97420-3",
            "zip": "97420",
            "name": "Pharmacie Jeanne D'Arc",
            "address": "56 rue du g\u00e9n\u00e9ral De Gaulle 97420 LE PORT",
            "reasons": []
        },
        {
            "id": 4,
            "url": "https://mapharma.net/97420-4",
            "zip": "97420",
            "name": "Pharmacie De L'Ancre",
            "address": "26 rue Fran\u00e7ois de Mahy 97420 LE PORT",
            "reasons": []
        }
    ],
    "97419": [
        {
            "id": 1,
            "url": "https://mapharma.net/97419-1",
            "zip": "97419",
            "name": "Pharmacie De La Corniche",
            "address": "62 rue Raymond Mondon 97419 LA POSSESSION",
            "reasons": []
        },
        {
            "id": 2,
            "url": "https://mapharma.net/97419-2",
            "zip": "97419",
            "name": "Pharmacie Du Terrain De Sel",
            "address": "39 rue Sarda Garriga 97419 LA POSSESSION",
            "reasons": []
        },
        {
            "id": 3,
            "url": "https://mapharma.net/97419-3",
            "zip": "97419",
            "name": "Pharmacie Du Moulin Joli",
            "address": "49 bis rue Gervais Barret 97415 LA POSSESSION",
            "reasons": []
        }
    ],
    "97440": [
        {
            "id": 1,
            "url": "https://mapharma.net/97440-1",
            "zip": "97440",
            "name": "Pharmacie Mille Roches Cressonniere",
            "address": "257 rue de la Cressonni\u00e8re 97440 SAINT ANDRE",
            "reasons": []
        },
        {
            "id": 2,
            "url": "https://mapharma.net/97440-2",
            "zip": "97440",
            "name": "Pharmacie Du Petit Bazar",
            "address": "1631 Avenue \u00cele-de-France 97440 SAINT ANDRE",
            "reasons": []
        }
    ],
    "97470": [
        {
            "id": 1,
            "url": "https://mapharma.net/97470-1",
            "zip": "97470",
            "name": "Grande Pharmacie De St Benoit",
            "address": "37 avenue Jean Monnet 97470 SAINT BENOIT",
            "reasons": []
        },
        {
            "id": 2,
            "url": "https://mapharma.net/97470-2",
            "zip": "97470",
            "name": "Pharmacie De L'Orchidee",
            "address": "16 Rue Louis Brunet 97470 SAINT BENOIT",
            "reasons": []
        }
    ],
    "97400": [
        {
            "id": 1,
            "url": "https://mapharma.net/97400-1",
            "zip": "97400",
            "name": "Pharmacie Massiau",
            "address": "2 rue Saint-Joseph Ouvrier 97400 SAINT DENIS",
            "reasons": []
        },
        {
            "id": 2,
            "url": "https://mapharma.net/97400-2",
            "zip": "97400",
            "name": "Pharmacie De Montgaillard",
            "address": "1 rocade de l'oasis 97400 SAINT DENIS",
            "reasons": []
        }
    ],
    "97490": [
        {
            "id": 1,
            "url": "https://mapharma.net/97490-1",
            "zip": "97490",
            "name": "Pharmacie Les Calebassieres",
            "address": "86 Avenue Leconte de Lisle 97490 SAINTE CLOTHILDE",
            "reasons": []
        },
        {
            "id": 2,
            "url": "https://mapharma.net/97490-2",
            "zip": "97490",
            "name": "Pharmacie Ker Chaudron",
            "address": "28 Avenue Joseph Bedier 97490 SAINTE CLOTILDE",
            "reasons": []
        },
        {
            "id": 3,
            "url": "https://mapharma.net/97490-3",
            "zip": "97490",
            "name": "Pharmacie Hirdjee",
            "address": "155 route des Ananas 97490 SAINTE CLOTILDE",
            "reasons": []
        },
        {
            "id": 4,
            "url": "https://mapharma.net/97490-4",
            "zip": "97490",
            "name": "Pharmacie De Champ Fleuri",
            "address": "2 Avenue Delattre de Tassigny 97490 SAINTE CLOTILDE",
            "reasons": []
        }
    ],
    "97480": [
        {
            "id": 1,
            "url": "https://mapharma.net/97480-1",
            "zip": "97480",
            "name": "Pharmacie Du Butor",
            "address": "111 Rue Raphael Babet 97480 SAINT JOSEPH",
            "reasons": []
        },
        {
            "id": 2,
            "url": "https://mapharma.net/97480-2",
            "zip": "97480",
            "name": "Pharmacie Chane Mui",
            "address": "270 Rue Raphael Babet 97480 SAINT JOSEPH",
            "reasons": []
        }
    ],
    "97436": [
        {
            "id": 1,
            "url": "https://mapharma.net/97436-1",
            "zip": "97436",
            "name": "Pharmacie De Salette",
            "address": "107 rue du G\u00e9n\u00e9ral Lambert 97436 ST LEU",
            "reasons": []
        },
        {
            "id": 2,
            "url": "https://mapharma.net/97436-2",
            "zip": "97436",
            "name": "Pharmacie Du Soleil",
            "address": "154 D Chemin D\u00e9partemental 13 97436 SAINT LEU",
            "reasons": []
        }
    ],
    "97421": [
        {
            "id": 1,
            "url": "https://mapharma.net/97421-1",
            "zip": "97421",
            "name": "Pharmacie De La Riviere",
            "address": "46 rue Georges Paulin 97421 LA RIVIERE SAINT LOUIS",
            "reasons": []
        },
        {
            "id": 2,
            "url": "https://mapharma.net/97421-2",
            "zip": "97421",
            "name": "Pharmacie Du Rosaire",
            "address": "13 Rue Pente Nicole 97421 LA RIVIERE SAINT LOUIS",
            "reasons": []
        },
        {
            "id": 3,
            "url": "https://mapharma.net/97421-3",
            "zip": "97421",
            "name": "Pharmacie Des Makes Tang Ting",
            "address": "70 rue Voltaire Les Makes 97421 LA RIVIERE",
            "reasons": []
        },
        {
            "id": 4,
            "url": "https://mapharma.net/97421-4",
            "zip": "97421",
            "name": "Pharmacie Du Ouaki",
            "address": "265 Route de Cilaos 97421 LA RIVIERE",
            "reasons": []
        }
    ],
    "97450": [
        {
            "id": 1,
            "url": "https://mapharma.net/97450-1",
            "zip": "97450",
            "name": "Selarl Pharmacie Chan-Ou-Teung",
            "address": "77 AV PRINCIPALE 97450 SAINT LOUIS",
            "reasons": []
        },
        {
            "id": 2,
            "url": "https://mapharma.net/97450-2",
            "zip": "97450",
            "name": "Pharmacie Roche Maigre",
            "address": "20 B rue Leconte de Lisle 97450 SAINT LOUIS",
            "reasons": []
        }
    ],
    "97411": [
        {
            "id": 1,
            "url": "https://mapharma.net/97411-1",
            "zip": "97411",
            "name": "Pharmacie Des Poinsetias",
            "address": "39 b Rue de l'Eglise 97411 BOIS DE NEFLES SAINT PAUL",
            "reasons": []
        },
        {
            "id": 2,
            "url": "https://mapharma.net/97411-2",
            "zip": "97411",
            "name": "Pharmacie Des Jacarandas",
            "address": "28 Rue Roland Garros 97411 BOIS DE NEFLES SAINT PAUL",
            "reasons": []
        }
    ],
    "97422": [
        {
            "id": 0,
            "url": "https://mapharma.net/97422",
            "zip": "97422",
            "name": "Pharmacie Les Grevilleas",
            "address": "1 Chemin de l'Ev\u00eaque 97422 SAINT PAUL",
            "reasons": []
        }
    ],
    "97423": [
        {
            "id": 0,
            "url": "https://mapharma.net/97423",
            "zip": "97423",
            "name": "Pharmacie Du Maido",
            "address": "87 rue Louise et Jouan 97423 LE GUILLAUME",
            "reasons": []
        }
    ],
    "97434": [
        {
            "id": 1,
            "url": "https://mapharma.net/97434-1",
            "zip": "97434",
            "name": "Pharmacie Du Lagon",
            "address": "1 rue Macabits 97434 SALINE LES BAINS",
            "reasons": []
        },
        {
            "id": 2,
            "url": "https://mapharma.net/97434-2",
            "zip": "97434",
            "name": "Pharmacie De Saint Gilles Les Bains",
            "address": "67 rue du G\u00e9n\u00e9ral de Gaulle 97434 SAINT GILLES LES BAINS",
            "reasons": []
        }
    ],
    "97435": [
        {
            "id": 1,
            "url": "https://mapharma.net/97435-1",
            "zip": "97435",
            "name": "Pharmacie De St Gilles Les Hauts",
            "address": "48 rue Joseph Hubert 97435 SAINT GILLES LES HAUTS",
            "reasons": []
        },
        {
            "id": 2,
            "url": "https://mapharma.net/97435-2",
            "zip": "97435",
            "name": "Pharmacie De L'Eperon",
            "address": "1 rue Poivre Vert 97435 SAINT GILLES LES HAUTS",
            "reasons": []
        }
    ],
    "97460": [
        {
            "id": 1,
            "url": "https://mapharma.net/97460-1",
            "zip": "97460",
            "name": "Pharmacie De Plateau Caillou",
            "address": "42 avenue Paul Julius B\u00e9nard 97460 SAINT PAUL",
            "reasons": []
        },
        {
            "id": 2,
            "url": "https://mapharma.net/97460-2",
            "zip": "97460",
            "name": "Pharmacie Du Boulevard Sud",
            "address": "216 Boulevard Jean Jaur\u00e8s 97460 SAINTE CLOTILDE",
            "reasons": []
        },
        {
            "id": 3,
            "url": "https://mapharma.net/97460-3",
            "zip": "97460",
            "name": "Pharmacie De L'Etang",
            "address": "408 rue St Louis 97460 SAINT PAUL",
            "reasons": []
        }
    ],
    "97410": [
        {
            "id": 1,
            "url": "https://mapharma.net/97410-1",
            "zip": "97410",
            "name": "Pharmacie Du Front De Mer",
            "address": "60 bld Hubert Delisle 97410 SAINT PIERRE",
            "reasons": []
        },
        {
            "id": 2,
            "url": "https://mapharma.net/97410-2",
            "zip": "97410",
            "name": "Pharmacie De La Cayenne",
            "address": "SIDR FRONT DE MER BAT I RUE DU PERE FAVRON 97410 SAINT PIERRE",
            "reasons": []
        },
        {
            "id": 3,
            "url": "https://mapharma.net/97410-3",
            "zip": "97410",
            "name": "Pharmacie Des Grands Filaos",
            "address": "7 Avenue Luc Donat 97410 SAINT PIERRE",
            "reasons": []
        }
    ],
    "97432": [
        {
            "id": 1,
            "url": "https://mapharma.net/97432-1",
            "zip": "97432",
            "name": "Pharmacie Principale",
            "address": "48 Rue du P\u00e8re Ma\u00eetre 97432 RAVINE DES CABRIS",
            "reasons": []
        },
        {
            "id": 2,
            "url": "https://mapharma.net/97432-2",
            "zip": "97432",
            "name": "Pharmacie Du Moulin",
            "address": "12 Chemin Recherchant 97432 RAVINE DES CABRIS",
            "reasons": []
        }
    ],
    "97442": [
        {
            "id": 0,
            "url": "https://mapharma.net/97442",
            "zip": "97442",
            "name": "Pharmacie Du Vacoa",
            "address": "24 Rue Leconte Delisle 97442 SAINT PHILIPPE",
            "reasons": []
        }
    ],
    "97438": [
        {
            "id": 0,
            "url": "https://mapharma.net/97438",
            "zip": "97438",
            "name": "Pharmacie De Beausejour",
            "address": "30 avenue du Beau Pays 97438 SAINTE MARIE",
            "reasons": []
        }
    ],
    "97441": [
        {
            "id": 1,
            "url": "https://mapharma.net/97441-1",
            "zip": "97441",
            "name": "Pharmacie De L'Ocean Indien",
            "address": "133 Avenue du Mahatma Gandhi 97441 SAINTE SUZANNE",
            "reasons": []
        },
        {
            "id": 2,
            "url": "https://mapharma.net/97441-2",
            "zip": "97441",
            "name": "Selarl Pharmacie Sole Contour",
            "address": "9 avenue Pierre Mend\u00e8s France 97441 SAINTE SUZANNE",
            "reasons": []
        }
    ],
    "97433": [
        {
            "id": 0,
            "url": "https://mapharma.net/97433",
            "zip": "97433",
            "name": "Pharmacie De Salazie",
            "address": "144 Rue GEORGES POMPIDOU 97433 SALAZIE",
            "reasons": []
        }
    ],
    "97418": [
        {
            "id": 1,
            "url": "https://mapharma.net/97418-1",
            "zip": "97418",
            "name": "Pharmacie De La Plaine",
            "address": "106 Rue Jean Defos du Rau PK 23 97418 PLAINE DES CAFRES",
            "reasons": []
        },
        {
            "id": 2,
            "url": "https://mapharma.net/97418-2",
            "zip": "97418",
            "name": "Pharmacie Du Bois Court",
            "address": "9 rue Rapha\u00ebl Douyere LA PLAINE DES CAFRES 97418 LE TAMPON",
            "reasons": []
        }
    ],
    "97430": [
        {
            "id": 1,
            "url": "https://mapharma.net/97430-1",
            "zip": "97430",
            "name": "Pharmacie Centrale",
            "address": "190 rue Hubert Delisle 97430 LE TAMPON",
            "reasons": []
        },
        {
            "id": 2,
            "url": "https://mapharma.net/97430-2",
            "zip": "97430",
            "name": "Pharmacie Des 400",
            "address": "24 rue des Flamboyants 97430 LE TAMPON",
            "reasons": []
        },
        {
            "id": 3,
            "url": "https://mapharma.net/97430-3",
            "zip": "97430",
            "name": "Selarl Pharmacie De La Mairie",
            "address": "259 Rue Hubert Delisle 97430 TAMPON",
            "reasons": []
        },
        {
            "id": 4,
            "url": "https://mapharma.net/97430-4",
            "zip": "97430",
            "name": "Selarl Pharmacie Du 14eme Km",
            "address": "21 Rue Georges Pompidou 97430 LE TAMPON",
            "reasons": []
        }
    ],
    "97426": [
        {
            "id": 0,
            "url": "https://mapharma.net/97426",
            "zip": "97426",
            "name": "Pharmacie Des Chocas",
            "address": "3 rue Fran\u00e7ois de Mahy 97426 TROIS BASSINS",
            "reasons": []
        }
    ],
    "97150": [
        {
            "id": 1,
            "url": "https://mapharma.net/97150-1",
            "zip": "97150",
            "name": "Sun Pharmacie",
            "address": "2 Rue de la R\u00e9publique 97150 SAINT MARTIN",
            "reasons": []
        },
        {
            "id": 2,
            "url": "https://mapharma.net/97150-2",
            "zip": "97150",
            "name": "Pharmacie Port Saint Martin",
            "address": "20 rue de la Libert\u00e9 Marigot 97150 SAINT MARTIN",
            "reasons": []
        }
    ]
}